CTC1_L_00467001-01
1 79914U 26667XY  26070.40836806  .00000000  00000+0  00000-0 0  9996
2 79914  87.0000   0.0000 0000000   0.0000   0.0000 13.98210060    18
CTC1_L_00467001-02
1 79915U 26623RK  26070.40836806  .00000000  00000+0  00000-0 0  9999
2 79915  87.0000   0.0000 0000000   0.0000 180.0000 13.98210060    18
CTC1_L_00467002-01
1 79916U 22798LL  26070.40836806  .00000000  00000+0  00000-0 0  9999
2 79916  87.0000  12.0000 0000000   0.0000  24.0000 13.98210060    19
CTC1_L_00467002-02
1 79917U 22151EN  26070.40836806  .00000000  00000+0  00000-0 0  9993
2 79917  87.0000  12.0000 0000000   0.0000 204.0000 13.98210060    10
CTC1_L_00467003-01
1 79918U 26095EQ  26070.40836806  .00000000  00000+0  00000-0 0  9995
2 79918  87.0000  24.0000 0000000   0.0000  48.0000 13.98210060    10
CTC1_L_00467003-02
1 79919U 22048EJ  26070.40836806  .00000000  00000+0  00000-0 0  9990
2 79919  87.0000  24.0000 0000000   0.0000 228.0000 13.98210060    11
CTC1_L_00467004-01
1 79920U 23079IO  26070.40836806  .00000000  00000+0  00000-0 0  9997
2 79920  87.0000  36.0000 0000000   0.0000  72.0000 13.98210060    13
CTC1_L_00467004-02
1 79921U 26405KC  26070.40836806  .00000000  00000+0  00000-0 0  9994
2 79921  87.0000  36.0000 0000000   0.0000 252.0000 13.98210060    14
CTC1_L_00467005-01
1 79922U 24891RA  26070.40836806  .00000000  00000+0  00000-0 0  9992
2 79922  87.0000  48.0000 0000000   0.0000  96.0000 13.98210060    14
CTC1_L_00467005-02
1 79923U 25730Y   26070.40836806  .00000000  00000+0  00000-0 0  9996
2 79923  87.0000  48.0000 0000000   0.0000 276.0000 13.98210060    15
CTC1_L_00467006-01
1 79924U 22090YI  26070.40836806  .00000000  00000+0  00000-0 0  9993
2 79924  87.0000  60.0000 0000000   0.0000 120.0000 13.98210060    18
CTC1_L_00467006-02
1 79925U 24322A   26070.40836806  .00000000  00000+0  00000-0 0  9994
2 79925  87.0000  60.0000 0000000   0.0000 300.0000 13.98210060    19
CTC1_L_00467007-01
1 79926U 22970VA  26070.40836806  .00000000  00000+0  00000-0 0  9992
2 79926  87.0000  72.0000 0000000   0.0000 144.0000 13.98210060    19
CTC1_L_00467007-02
1 79927U 25557NH  26070.40836806  .00000000  00000+0  00000-0 0  9997
2 79927  87.0000  72.0000 0000000   0.0000 324.0000 13.98210060    10
CTC1_L_00467008-01
1 79928U 23325LU  26070.40836806  .00000000  00000+0  00000-0 0  9999
2 79928  87.0000  84.0000 0000000   0.0000 168.0000 13.98210060    10
CTC1_L_00467008-02
1 79929U 24407BS  26070.40836806  .00000000  00000+0  00000-0 0  9992
2 79929  87.0000  84.0000 0000000   0.0000 348.0000 13.98210060    11
CTC1_L_00467009-01
1 79930U 26068SS  26070.40836806  .00000000  00000+0  00000-0 0  9999
2 79930  87.0000  96.0000 0000000   0.0000 192.0000 13.98210060    13
CTC1_L_00467009-02
1 79931U 26482PH  26070.40836806  .00000000  00000+0  00000-0 0  9990
2 79931  87.0000  96.0000 0000000   0.0000  12.0000 13.98210060    15
CTC1_L_00467010-01
1 79932U 22524DC  26070.40836806  .00000000  00000+0  00000-0 0  9994
2 79932  87.0000 108.0000 0000000   0.0000 216.0000 13.98210060    16
CTC1_L_00467010-02
1 79933U 22221HI  26070.40836806  .00000000  00000+0  00000-0 0  9999
2 79933  87.0000 108.0000 0000000   0.0000  36.0000 13.98210060    17
CTC1_L_00467011-01
1 79934U 25176KF  26070.40836806  .00000000  00000+0  00000-0 0  9992
2 79934  87.0000 120.0000 0000000   0.0000 240.0000 13.98210060    19
CTC1_L_00467011-02
1 79935U 23369GO  26070.40836806  .00000000  00000+0  00000-0 0  9995
2 79935  87.0000 120.0000 0000000   0.0000  60.0000 13.98210060    10
CTC1_L_00467012-01
1 79936U 23515IF  26070.40836806  .00000000  00000+0  00000-0 0  9999
2 79936  87.0000 132.0000 0000000   0.0000 264.0000 13.98210060    10
CTC1_L_00467012-02
1 79937U 25006MB  26070.40836806  .00000000  00000+0  00000-0 0  9997
2 79937  87.0000 132.0000 0000000   0.0000  84.0000 13.98210060    11
CTC1_L_00467013-01
1 79938U 23563XZ  26070.40836806  .00000000  00000+0  00000-0 0  9994
2 79938  87.0000 144.0000 0000000   0.0000 288.0000 13.98210060    11
CTC1_L_00467013-02
1 79939U 24677ID  26070.40836806  .00000000  00000+0  00000-0 0  9992
2 79939  87.0000 144.0000 0000000   0.0000 108.0000 13.98210060    13
CTC1_L_00467014-01
1 79940U 25160S   26070.40836806  .00000000  00000+0  00000-0 0  9992
2 79940  87.0000 156.0000 0000000   0.0000 312.0000 13.98210060    15
CTC1_L_00467014-02
1 79941U 26251PT  26070.40836806  .00000000  00000+0  00000-0 0  9995
2 79941  87.0000 156.0000 0000000   0.0000 132.0000 13.98210060    16
CTC1_L_00467015-01
1 79942U 23338GV  26070.40836806  .00000000  00000+0  00000-0 0  9999
2 79942  87.0000 168.0000 0000000   0.0000 336.0000 13.98210060    16
CTC1_L_00467015-02
1 79943U 22292GN  26070.40836806  .00000000  00000+0  00000-0 0  9998
2 79943  87.0000 168.0000 0000000   0.0000 156.0000 13.98210060    17
CTC1_L_00467016-01
1 79944U 23019HR  26070.40836806  .00000000  00000+0  00000-0 0  9997
2 79944  87.0000 180.0000 0000000   0.0000   0.0000 13.98210060    10
CTC1_L_00467016-02
1 79945U 22751ZL  26070.40836806  .00000000  00000+0  00000-0 0  9990
2 79945  87.0000 180.0000 0000000   0.0000 180.0000 13.98210060    10
CTC1_L_00467017-01
1 79946U 22900ZM  26070.40836806  .00000000  00000+0  00000-0 0  9997
2 79946  87.0000 192.0000 0000000   0.0000  24.0000 13.98210060    11
CTC1_L_00467017-02
1 79947U 22579HJ  26070.40836806  .00000000  00000+0  00000-0 0  9990
2 79947  87.0000 192.0000 0000000   0.0000 204.0000 13.98210060    12
CTC1_L_00467018-01
1 79948U 24772NW  26070.40836806  .00000000  00000+0  00000-0 0  9998
2 79948  87.0000 204.0000 0000000   0.0000  48.0000 13.98210060    13
CTC1_L_00467018-02
1 79949U 22943CQ  26070.40836806  .00000000  00000+0  00000-0 0  9997
2 79949  87.0000 204.0000 0000000   0.0000 228.0000 13.98210060    14
CTC1_L_00467019-01
1 79950U 22996EN  26070.40836806  .00000000  00000+0  00000-0 0  9997
2 79950  87.0000 216.0000 0000000   0.0000  72.0000 13.98210060    16
CTC1_L_00467019-02
1 79951U 26228KD  26070.40836806  .00000000  00000+0  00000-0 0  9990
2 79951  87.0000 216.0000 0000000   0.0000 252.0000 13.98210060    17
CTC1_L_00467020-01
1 79952U 26501TT  26070.40836806  .00000000  00000+0  00000-0 0  9995
2 79952  87.0000 228.0000 0000000   0.0000  96.0000 13.98210060    17
CTC1_L_00467020-02
1 79953U 22770AD  26070.40836806  .00000000  00000+0  00000-0 0  9990
2 79953  87.0000 228.0000 0000000   0.0000 276.0000 13.98210060    18
CTC1_L_00467021-01
1 79954U 24562BG  26070.40836806  .00000000  00000+0  00000-0 0  9992
2 79954  87.0000 240.0000 0000000   0.0000 120.0000 13.98210060    11
CTC1_L_00467021-02
1 79955U 23584ER  26070.40836806  .00000000  00000+0  00000-0 0  9996
2 79955  87.0000 240.0000 0000000   0.0000 300.0000 13.98210060    12
CTC1_L_00467022-01
1 79956U 24429RX  26070.40836806  .00000000  00000+0  00000-0 0  9996
2 79956  87.0000 252.0000 0000000   0.0000 144.0000 13.98210060    12
CTC1_L_00467022-02
1 79957U 22359FE  26070.40836806  .00000000  00000+0  00000-0 0  9997
2 79957  87.0000 252.0000 0000000   0.0000 324.0000 13.98210060    13
CTC1_L_00467023-01
1 79958U 24016YR  26070.40836806  .00000000  00000+0  00000-0 0  9990
2 79958  87.0000 264.0000 0000000   0.0000 168.0000 13.98210060    13
CTC1_L_00467023-02
1 79959U 23858IQ  26070.40836806  .00000000  00000+0  00000-0 0  9994
2 79959  87.0000 264.0000 0000000   0.0000 348.0000 13.98210060    14
CTC1_L_00467024-01
1 79960U 25870QL  26070.40836806  .00000000  00000+0  00000-0 0  9992
2 79960  87.0000 276.0000 0000000   0.0000 192.0000 13.98210060    16
CTC1_L_00467024-02
1 79961U 22279NA  26070.40836806  .00000000  00000+0  00000-0 0  9993
2 79961  87.0000 276.0000 0000000   0.0000  12.0000 13.98210060    18
CTC1_L_00467025-01
1 79962U 25034LL  26070.40836806  .00000000  00000+0  00000-0 0  9996
2 79962  87.0000 288.0000 0000000   0.0000 216.0000 13.98210060    18
CTC1_L_00467025-02
1 79963U 25738SV  26070.40836806  .00000000  00000+0  00000-0 0  9998
2 79963  87.0000 288.0000 0000000   0.0000  36.0000 13.98210060    19
CTC1_L_00467026-01
1 79964U 23018JH  26070.40836806  .00000000  00000+0  00000-0 0  9998
2 79964  87.0000 300.0000 0000000   0.0000 240.0000 13.98210060    12
CTC1_L_00467026-02
1 79965U 23363NU  26070.40836806  .00000000  00000+0  00000-0 0  9992
2 79965  87.0000 300.0000 0000000   0.0000  60.0000 13.98210060    13
CTC1_L_00467027-01
1 79966U 26260TB  26070.40836806  .00000000  00000+0  00000-0 0  9992
2 79966  87.0000 312.0000 0000000   0.0000 264.0000 13.98210060    13
CTC1_L_00467027-02
1 79967U 25112RC  26070.40836806  .00000000  00000+0  00000-0 0  9998
2 79967  87.0000 312.0000 0000000   0.0000  84.0000 13.98210060    14
CTC1_L_00467028-01
1 79968U 22049JM  26070.40836806  .00000000  00000+0  00000-0 0  9995
2 79968  87.0000 324.0000 0000000   0.0000 288.0000 13.98210060    14
CTC1_L_00467028-02
1 79969U 22632IX  26070.40836806  .00000000  00000+0  00000-0 0  9994
2 79969  87.0000 324.0000 0000000   0.0000 108.0000 13.98210060    16
CTC1_L_00467029-01
1 79970U 22694EY  26070.40836806  .00000000  00000+0  00000-0 0  9994
2 79970  87.0000 336.0000 0000000   0.0000 312.0000 13.98210060    18
CTC1_L_00467029-02
1 79971U 24179CP  26070.40836806  .00000000  00000+0  00000-0 0  9995
2 79971  87.0000 336.0000 0000000   0.0000 132.0000 13.98210060    19
CTC1_L_00467030-01
1 79972U 24463EN  26070.40836806  .00000000  00000+0  00000-0 0  9992
2 79972  87.0000 348.0000 0000000   0.0000 336.0000 13.98210060    19
CTC1_L_00467030-02
1 79973U 25540MU  26070.40836806  .00000000  00000+0  00000-0 0  9990
2 79973  87.0000 348.0000 0000000   0.0000 156.0000 13.98210060    10
